[{"OBJECT_NAME":"INMARSAT 4-F2 (SOUTHPAN/PRN 122)","OBJECT_ID":"2005-044A","EPOCH":"2026-04-25T18:43:38.676000","MEAN_MOTION":1.00272238,"ECCENTRICITY":0.0002704,"INCLINATION":5.0292,"RA_OF_ASC_NODE":43.758,"ARG_OF_PERICENTER":347.7503,"MEAN_ANOMALY":246.6499,"EPHEMERIS_TYPE":0,"CLASSIFICATION_TYPE":"U","NORAD_CAT_ID":28899,"ELEMENT_SET_NO":999,"REV_AT_EPOCH":7499,"BSTAR":0,"MEAN_MOTION_DOT":-2.71e-6,"MEAN_MOTION_DDOT":0},{"OBJECT_NAME":"GSAT-8 (GAGAN/PRN 127)","OBJECT_ID":"2011-022A","EPOCH":"2026-04-25T19:00:17.769312","MEAN_MOTION":1.00271516,"ECCENTRICITY":0.0004907,"INCLINATION":1.9975,"RA_OF_ASC_NODE":82.4269,"ARG_OF_PERICENTER":226.0434,"MEAN_ANOMALY":245.4835,"EPHEMERIS_TYPE":0,"CLASSIFICATION_TYPE":"U","NORAD_CAT_ID":37605,"ELEMENT_SET_NO":999,"REV_AT_EPOCH":5269,"BSTAR":0,"MEAN_MOTION_DOT":7.3e-7,"MEAN_MOTION_DDOT":0},{"OBJECT_NAME":"LUCH 5A (SDCM/PRN 140)","OBJECT_ID":"2011-074B","EPOCH":"2026-04-25T18:39:20.271744","MEAN_MOTION":1.00272711,"ECCENTRICITY":0.0002714,"INCLINATION":8.6237,"RA_OF_ASC_NODE":74.5624,"ARG_OF_PERICENTER":302.6373,"MEAN_ANOMALY":283.3454,"EPHEMERIS_TYPE":0,"CLASSIFICATION_TYPE":"U","NORAD_CAT_ID":37951,"ELEMENT_SET_NO":999,"REV_AT_EPOCH":5252,"BSTAR":0,"MEAN_MOTION_DOT":-5.7e-7,"MEAN_MOTION_DDOT":0},{"OBJECT_NAME":"SES-5 (EGNOS/PRN 136)","OBJECT_ID":"2012-036A","EPOCH":"2026-04-25T15:20:41.565408","MEAN_MOTION":1.00271793,"ECCENTRICITY":0.000198,"INCLINATION":0.0576,"RA_OF_ASC_NODE":301.7705,"ARG_OF_PERICENTER":87.1365,"MEAN_ANOMALY":59.8945,"EPHEMERIS_TYPE":0,"CLASSIFICATION_TYPE":"U","NORAD_CAT_ID":38652,"ELEMENT_SET_NO":999,"REV_AT_EPOCH":4393,"BSTAR":0,"MEAN_MOTION_DOT":2.0e-7,"MEAN_MOTION_DDOT":0},{"OBJECT_NAME":"GSAT-10 (GAGAN/PRN 128)","OBJECT_ID":"2012-051B","EPOCH":"2026-04-25T19:08:17.003328","MEAN_MOTION":1.00270064,"ECCENTRICITY":0.0006881,"INCLINATION":0.0259,"RA_OF_ASC_NODE":263.902,"ARG_OF_PERICENTER":177.5584,"MEAN_ANOMALY":142.3912,"EPHEMERIS_TYPE":0,"CLASSIFICATION_TYPE":"U","NORAD_CAT_ID":38779,"ELEMENT_SET_NO":999,"REV_AT_EPOCH":4957,"BSTAR":0,"MEAN_MOTION_DOT":-1.78e-6,"MEAN_MOTION_DDOT":0},{"OBJECT_NAME":"LUCH 5B (SDCM/PRN 125)","OBJECT_ID":"2012-061A","EPOCH":"2026-04-25T15:14:34.651392","MEAN_MOTION":1.0027153,"ECCENTRICITY":0.0001856,"INCLINATION":10.3736,"RA_OF_ASC_NODE":50.3947,"ARG_OF_PERICENTER":213.6172,"MEAN_ANOMALY":162.0087,"EPHEMERIS_TYPE":0,"CLASSIFICATION_TYPE":"U","NORAD_CAT_ID":38977,"ELEMENT_SET_NO":999,"REV_AT_EPOCH":4908,"BSTAR":0,"MEAN_MOTION_DOT":-1.46e-6,"MEAN_MOTION_DDOT":0},{"OBJECT_NAME":"ASTRA 5B (EGNOS/PRN 123)","OBJECT_ID":"2014-011B","EPOCH":"2026-04-25T18:51:18.629856","MEAN_MOTION":1.00269121,"ECCENTRICITY":0.0002691,"INCLINATION":0.0696,"RA_OF_ASC_NODE":306.3881,"ARG_OF_PERICENTER":64.5101,"MEAN_ANOMALY":149.2289,"EPHEMERIS_TYPE":0,"CLASSIFICATION_TYPE":"U","NORAD_CAT_ID":39617,"ELEMENT_SET_NO":999,"REV_AT_EPOCH":4414,"BSTAR":0,"MEAN_MOTION_DOT":1.23e-6,"MEAN_MOTION_DDOT":0},{"OBJECT_NAME":"LUCH 5V (SDCM/PRN 141)","OBJECT_ID":"2014-023A","EPOCH":"2026-04-25T21:02:21.931008","MEAN_MOTION":1.00272089,"ECCENTRICITY":0.0002183,"INCLINATION":5.0067,"RA_OF_ASC_NODE":70.2558,"ARG_OF_PERICENTER":337.6189,"MEAN_ANOMALY":216.3664,"EPHEMERIS_TYPE":0,"CLASSIFICATION_TYPE":"U","NORAD_CAT_ID":39727,"ELEMENT_SET_NO":999,"REV_AT_EPOCH":4383,"BSTAR":0,"MEAN_MOTION_DOT":-2.79e-6,"MEAN_MOTION_DDOT":0},{"OBJECT_NAME":"GSAT-15 (GAGAN/PRN 139)","OBJECT_ID":"2015-065A","EPOCH":"2026-04-25T20:57:21.716064","MEAN_MOTION":1.00272202,"ECCENTRICITY":0.0003675,"INCLINATION":0.0709,"RA_OF_ASC_NODE":257.4869,"ARG_OF_PERICENTER":143.1679,"MEAN_ANOMALY":221.0793,"EPHEMERIS_TYPE":0,"CLASSIFICATION_TYPE":"U","NORAD_CAT_ID":41028,"ELEMENT_SET_NO":999,"REV_AT_EPOCH":3827,"BSTAR":0,"MEAN_MOTION_DOT":-2.72e-6,"MEAN_MOTION_DDOT":0},{"OBJECT_NAME":"EUTELSAT 117 WEST B (WAAS/PRN 131)","OBJECT_ID":"2016-038B","EPOCH":"2026-04-25T16:28:37.616736","MEAN_MOTION":1.00271513,"ECCENTRICITY":2.1e-6,"INCLINATION":0.0104,"RA_OF_ASC_NODE":97.9928,"ARG_OF_PERICENTER":322.0419,"MEAN_ANOMALY":283.8316,"EPHEMERIS_TYPE":0,"CLASSIFICATION_TYPE":"U","NORAD_CAT_ID":41589,"ELEMENT_SET_NO":999,"REV_AT_EPOCH":3613,"BSTAR":0,"MEAN_MOTION_DOT":-2.6e-7,"MEAN_MOTION_DDOT":0},{"OBJECT_NAME":"SES-15 (WAAS/PRN 133)","OBJECT_ID":"2017-026A","EPOCH":"2026-04-25T16:25:07.953312","MEAN_MOTION":1.00270298,"ECCENTRICITY":6.23e-5,"INCLINATION":0.0249,"RA_OF_ASC_NODE":331.2396,"ARG_OF_PERICENTER":35.8861,"MEAN_ANOMALY":323.6956,"EPHEMERIS_TYPE":0,"CLASSIFICATION_TYPE":"U","NORAD_CAT_ID":42709,"ELEMENT_SET_NO":999,"REV_AT_EPOCH":690,"BSTAR":0,"MEAN_MOTION_DOT":4.6e-7,"MEAN_MOTION_DDOT":0},{"OBJECT_NAME":"QZS-2 (QZSS/PRN 194)","OBJECT_ID":"2017-028A","EPOCH":"2026-04-25T15:30:04.203936","MEAN_MOTION":1.00247691,"ECCENTRICITY":0.0740383,"INCLINATION":39.5105,"RA_OF_ASC_NODE":243.9205,"ARG_OF_PERICENTER":270.7988,"MEAN_ANOMALY":69.6269,"EPHEMERIS_TYPE":0,"CLASSIFICATION_TYPE":"U","NORAD_CAT_ID":42738,"ELEMENT_SET_NO":999,"REV_AT_EPOCH":709,"BSTAR":0,"MEAN_MOTION_DOT":-2.62e-6,"MEAN_MOTION_DDOT":0},{"OBJECT_NAME":"QZS-3 (QZSS/PRN 199)","OBJECT_ID":"2017-048A","EPOCH":"2026-04-25T19:20:53.292768","MEAN_MOTION":1.00271366,"ECCENTRICITY":0.0001334,"INCLINATION":0.0512,"RA_OF_ASC_NODE":184.5731,"ARG_OF_PERICENTER":195.4377,"MEAN_ANOMALY":251.0653,"EPHEMERIS_TYPE":0,"CLASSIFICATION_TYPE":"U","NORAD_CAT_ID":42917,"ELEMENT_SET_NO":999,"REV_AT_EPOCH":3173,"BSTAR":0,"MEAN_MOTION_DOT":-3.62e-6,"MEAN_MOTION_DDOT":0},{"OBJECT_NAME":"QZS-4 (QZSS/PRN 195)","OBJECT_ID":"2017-062A","EPOCH":"2026-04-22T16:00:20.725056","MEAN_MOTION":1.00266456,"ECCENTRICITY":0.07466255,"INCLINATION":40.1416,"RA_OF_ASC_NODE":344.1915,"ARG_OF_PERICENTER":270.8161,"MEAN_ANOMALY":335.9811,"EPHEMERIS_TYPE":0,"CLASSIFICATION_TYPE":"U","NORAD_CAT_ID":42965,"ELEMENT_SET_NO":999,"REV_AT_EPOCH":3124,"BSTAR":0,"MEAN_MOTION_DOT":-3.26e-6,"MEAN_MOTION_DDOT":0},{"OBJECT_NAME":"BEIDOU-3 G1 (PRN 130)","OBJECT_ID":"2018-085A","EPOCH":"2026-04-25T19:34:23.287584","MEAN_MOTION":1.00265382,"ECCENTRICITY":0.0007311,"INCLINATION":2.9432,"RA_OF_ASC_NODE":98.7623,"ARG_OF_PERICENTER":333.2346,"MEAN_ANOMALY":235.3783,"EPHEMERIS_TYPE":0,"CLASSIFICATION_TYPE":"U","NORAD_CAT_ID":43683,"ELEMENT_SET_NO":999,"REV_AT_EPOCH":2753,"BSTAR":0,"MEAN_MOTION_DOT":-1.21e-6,"MEAN_MOTION_DDOT":0},{"OBJECT_NAME":"EUTELSAT 5 WEST B (EGNOS/PRN 121)","OBJECT_ID":"2019-067A","EPOCH":"2026-04-25T20:16:38.659296","MEAN_MOTION":1.00271253,"ECCENTRICITY":0.000314,"INCLINATION":0.0688,"RA_OF_ASC_NODE":8.4434,"ARG_OF_PERICENTER":25.583,"MEAN_ANOMALY":118.9839,"EPHEMERIS_TYPE":0,"CLASSIFICATION_TYPE":"U","NORAD_CAT_ID":44624,"ELEMENT_SET_NO":999,"REV_AT_EPOCH":2391,"BSTAR":0,"MEAN_MOTION_DOT":-5.6e-7,"MEAN_MOTION_DDOT":0},{"OBJECT_NAME":"BEIDOU-3 G2 (PRN 144)","OBJECT_ID":"2020-017A","EPOCH":"2026-04-25T17:24:47.231424","MEAN_MOTION":1.00271445,"ECCENTRICITY":0.0002482,"INCLINATION":2.7608,"RA_OF_ASC_NODE":46.5062,"ARG_OF_PERICENTER":346.6079,"MEAN_ANOMALY":161.8621,"EPHEMERIS_TYPE":0,"CLASSIFICATION_TYPE":"U","NORAD_CAT_ID":45344,"ELEMENT_SET_NO":999,"REV_AT_EPOCH":2273,"BSTAR":0,"MEAN_MOTION_DOT":-1.52e-6,"MEAN_MOTION_DDOT":0}]
